COSMOS 2251 DEB         
1 36049U 93036AXL 26073.63013592  .00005089  00000+0  98889-3 0  9996
2 36049  74.0303 302.9938 0009263   4.7852 355.3402 14.63381942867083
COSMOS 2251 DEB         
1 36050U 93036AXM 26074.08437416  .00012500  00000+0  86575-3 0  9998
2 36050  74.0335   5.6802 0082342  60.6604 300.2778 15.02921204684214
COSMOS 2251 DEB         
1 36053U 93036AXQ 26073.46008212  .00005875  00000+0  12551-2 0  9999
2 36053  73.8738 336.4817 0032907 263.6703  96.0712 14.58719166887810
COSMOS 2251 DEB         
1 36058U 93036AXV 26074.12451942  .00002915  00000+0  61461-3 0  9997
2 36058  74.0212 217.2987 0045883 325.9695  33.8529 14.59259589674580
COSMOS 2251 DEB         
1 36060U 93036AXX 26073.69665179  .00001203  00000+0  37242-3 0  9999
2 36060  74.0274  63.9987 0014216 150.1742 210.0227 14.42240602863351
COSMOS 2251 DEB         
1 36061U 93036AXY 26073.00850735  .00000906  00000+0  33165-3 0  9998
2 36061  74.0242 192.6775 0039563 259.6536 100.0154 14.33892973664125
COSMOS 2251 DEB         
1 36073U 93036AYL 26073.47013718  .00000548  00000+0  20065-3 0  9991
2 36073  74.0326 154.3899 0025202 206.4028 153.5842 14.35089029715232
COSMOS 2251 DEB         
1 36074U 93036AYM 26070.57899755  .00004100  00000+0  11792-2 0  9997
2 36074  73.9901 174.7761 0045103 249.1204 110.5122 14.44521631871929
COSMOS 2251 DEB         
1 36366U 93036AYT 26072.41242434  .00003186  00000+0  10965-2 0  9996
2 36366  74.0645 107.4548 0084083 115.5550 245.4326 14.34378001875889
COSMOS 2251 DEB         
1 36367U 93036AYU 26074.27187952  .00000873  00000+0  58903-3 0  9991
2 36367  74.0966  75.2734 0259096 126.5109 236.0187 13.86732287588120
COSMOS 2251 DEB         
1 36369U 93036AYW 26063.83743863  .00012496  00000+0  18310-2 0  9993
2 36369  74.0282 270.3454 0011429 325.6872  34.3563 14.75602519871322
COSMOS 2251 DEB         
1 36371U 93036AYY 26057.55756626  .00014222  00000+0  22282-2 0  9991
2 36371  74.0146  13.9369 0006486  17.5795 342.5600 14.72714315725608
COSMOS 2251 DEB         
1 36379U 93036AZG 26073.47309599  .00000711  00000+0  24927-3 0  9998
2 36379  74.0119 138.1291 0047565 246.6676 128.7935 14.36255146661455
COSMOS 2251 DEB         
1 36385U 93036AZN 26073.98796569  .00013273  00000+0  16993-2 0  9998
2 36385  73.9713 333.7971 0136099 127.1116 234.2587 14.74983653864613
COSMOS 2251 DEB         
1 36420U 93036AZT 26072.85181910  .00000367  00000+0  13237-3 0  9990
2 36420  74.0355 107.9798 0018334 182.3953 356.7170 14.36996716863459
COSMOS 2251 DEB         
1 36430U 93036BAD 26067.36492679  .00001127  00000+0  44251-3 0  9993
2 36430  74.0058 313.0782 0095184  83.2405 277.9563 14.27995713657796
