[{"OBJECT_NAME":"COSMOS 2251 DEB","OBJECT_ID":"1993-036AXL","EPOCH":"2026-03-14T15:07:23.743488","MEAN_MOTION":14.63381942,"ECCENTRICITY":0.00092637,"INCLINATION":74.0303,"RA_OF_ASC_NODE":302.9938,"ARG_OF_PERICENTER":4.7852,"MEAN_ANOMALY":355.3402,"EPHEMERIS_TYPE":0,"CLASSIFICATION_TYPE":"U","NORAD_CAT_ID":36049,"ELEMENT_SET_NO":999,"REV_AT_EPOCH":86708,"BSTAR":0.00098888632,"MEAN_MOTION_DOT":5.089e-5,"MEAN_MOTION_DDOT":0},{"OBJECT_NAME":"COSMOS 2251 DEB","OBJECT_ID":"1993-036AXM","EPOCH":"2026-03-15T02:01:29.927424","MEAN_MOTION":15.02921204,"ECCENTRICITY":0.00823427,"INCLINATION":74.0335,"RA_OF_ASC_NODE":5.6802,"ARG_OF_PERICENTER":60.6604,"MEAN_ANOMALY":300.2778,"EPHEMERIS_TYPE":0,"CLASSIFICATION_TYPE":"U","NORAD_CAT_ID":36050,"ELEMENT_SET_NO":999,"REV_AT_EPOCH":68421,"BSTAR":0.00086574962,"MEAN_MOTION_DOT":0.000125,"MEAN_MOTION_DDOT":0},{"OBJECT_NAME":"COSMOS 2251 DEB","OBJECT_ID":"1993-036AXQ","EPOCH":"2026-03-14T11:02:31.095168","MEAN_MOTION":14.58719166,"ECCENTRICITY":0.00329079,"INCLINATION":73.8738,"RA_OF_ASC_NODE":336.4817,"ARG_OF_PERICENTER":263.6703,"MEAN_ANOMALY":96.0712,"EPHEMERIS_TYPE":0,"CLASSIFICATION_TYPE":"U","NORAD_CAT_ID":36053,"ELEMENT_SET_NO":999,"REV_AT_EPOCH":88781,"BSTAR":0.0012550906,"MEAN_MOTION_DOT":5.875e-5,"MEAN_MOTION_DDOT":0},{"OBJECT_NAME":"COSMOS 2251 DEB","OBJECT_ID":"1993-036AXV","EPOCH":"2026-03-15T02:59:18.477888","MEAN_MOTION":14.59259589,"ECCENTRICITY":0.00458835,"INCLINATION":74.0212,"RA_OF_ASC_NODE":217.2987,"ARG_OF_PERICENTER":325.9695,"MEAN_ANOMALY":33.8529,"EPHEMERIS_TYPE":0,"CLASSIFICATION_TYPE":"U","NORAD_CAT_ID":36058,"ELEMENT_SET_NO":999,"REV_AT_EPOCH":67458,"BSTAR":0.00061460665,"MEAN_MOTION_DOT":2.915e-5,"MEAN_MOTION_DDOT":0},{"OBJECT_NAME":"COSMOS 2251 DEB","OBJECT_ID":"1993-036AXX","EPOCH":"2026-03-14T16:43:10.714656","MEAN_MOTION":14.42240602,"ECCENTRICITY":0.00142166,"INCLINATION":74.0274,"RA_OF_ASC_NODE":63.9987,"ARG_OF_PERICENTER":150.1742,"MEAN_ANOMALY":210.0227,"EPHEMERIS_TYPE":0,"CLASSIFICATION_TYPE":"U","NORAD_CAT_ID":36060,"ELEMENT_SET_NO":999,"REV_AT_EPOCH":86335,"BSTAR":0.0003724247,"MEAN_MOTION_DOT":1.203e-5,"MEAN_MOTION_DDOT":0},{"OBJECT_NAME":"COSMOS 2251 DEB","OBJECT_ID":"1993-036AXY","EPOCH":"2026-03-14T00:12:15.035040","MEAN_MOTION":14.33892973,"ECCENTRICITY":0.00395639,"INCLINATION":74.0242,"RA_OF_ASC_NODE":192.6775,"ARG_OF_PERICENTER":259.6536,"MEAN_ANOMALY":100.0154,"EPHEMERIS_TYPE":0,"CLASSIFICATION_TYPE":"U","NORAD_CAT_ID":36061,"ELEMENT_SET_NO":999,"REV_AT_EPOCH":66412,"BSTAR":0.00033165287,"MEAN_MOTION_DOT":9.06e-6,"MEAN_MOTION_DDOT":0},{"OBJECT_NAME":"COSMOS 2251 DEB","OBJECT_ID":"1993-036AYL","EPOCH":"2026-03-14T11:16:59.852352","MEAN_MOTION":14.35089029,"ECCENTRICITY":0.00252029,"INCLINATION":74.0326,"RA_OF_ASC_NODE":154.3899,"ARG_OF_PERICENTER":206.4028,"MEAN_ANOMALY":153.5842,"EPHEMERIS_TYPE":0,"CLASSIFICATION_TYPE":"U","NORAD_CAT_ID":36073,"ELEMENT_SET_NO":999,"REV_AT_EPOCH":71523,"BSTAR":0.00020065352,"MEAN_MOTION_DOT":5.48e-6,"MEAN_MOTION_DDOT":0},{"OBJECT_NAME":"COSMOS 2251 DEB","OBJECT_ID":"1993-036AYM","EPOCH":"2026-03-11T13:53:45.388320","MEAN_MOTION":14.44521631,"ECCENTRICITY":0.00451036,"INCLINATION":73.9901,"RA_OF_ASC_NODE":174.7761,"ARG_OF_PERICENTER":249.1204,"MEAN_ANOMALY":110.5122,"EPHEMERIS_TYPE":0,"CLASSIFICATION_TYPE":"U","NORAD_CAT_ID":36074,"ELEMENT_SET_NO":999,"REV_AT_EPOCH":87192,"BSTAR":0.0011792481,"MEAN_MOTION_DOT":4.1e-5,"MEAN_MOTION_DDOT":0},{"OBJECT_NAME":"COSMOS 2251 DEB","OBJECT_ID":"1993-036AYT","EPOCH":"2026-03-13T09:53:53.462976","MEAN_MOTION":14.34378001,"ECCENTRICITY":0.0084083,"INCLINATION":74.0645,"RA_OF_ASC_NODE":107.4548,"ARG_OF_PERICENTER":115.555,"MEAN_ANOMALY":245.4326,"EPHEMERIS_TYPE":0,"CLASSIFICATION_TYPE":"U","NORAD_CAT_ID":36366,"ELEMENT_SET_NO":999,"REV_AT_EPOCH":87588,"BSTAR":0.0010964734,"MEAN_MOTION_DOT":3.186e-5,"MEAN_MOTION_DDOT":0},{"OBJECT_NAME":"COSMOS 2251 DEB","OBJECT_ID":"1993-036AYU","EPOCH":"2026-03-15T06:31:30.390528","MEAN_MOTION":13.86732287,"ECCENTRICITY":0.02590968,"INCLINATION":74.0966,"RA_OF_ASC_NODE":75.2734,"ARG_OF_PERICENTER":126.5109,"MEAN_ANOMALY":236.0187,"EPHEMERIS_TYPE":0,"CLASSIFICATION_TYPE":"U","NORAD_CAT_ID":36367,"ELEMENT_SET_NO":999,"REV_AT_EPOCH":58812,"BSTAR":0.00058902666,"MEAN_MOTION_DOT":8.73e-6,"MEAN_MOTION_DDOT":0},{"OBJECT_NAME":"COSMOS 2251 DEB","OBJECT_ID":"1993-036AYW","EPOCH":"2026-03-04T20:05:54.697632","MEAN_MOTION":14.75602519,"ECCENTRICITY":0.00114294,"INCLINATION":74.0282,"RA_OF_ASC_NODE":270.3454,"ARG_OF_PERICENTER":325.6872,"MEAN_ANOMALY":34.3563,"EPHEMERIS_TYPE":0,"CLASSIFICATION_TYPE":"U","NORAD_CAT_ID":36369,"ELEMENT_SET_NO":999,"REV_AT_EPOCH":87132,"BSTAR":0.0018310016,"MEAN_MOTION_DOT":0.00012496,"MEAN_MOTION_DDOT":0},{"OBJECT_NAME":"COSMOS 2251 DEB","OBJECT_ID":"1993-036AYY","EPOCH":"2026-02-26T13:22:53.724864","MEAN_MOTION":14.72714315,"ECCENTRICITY":0.0006486,"INCLINATION":74.0146,"RA_OF_ASC_NODE":13.9369,"ARG_OF_PERICENTER":17.5795,"MEAN_ANOMALY":342.56,"EPHEMERIS_TYPE":0,"CLASSIFICATION_TYPE":"U","NORAD_CAT_ID":36371,"ELEMENT_SET_NO":999,"REV_AT_EPOCH":72560,"BSTAR":0.0022282,"MEAN_MOTION_DOT":0.00014222,"MEAN_MOTION_DDOT":0},{"OBJECT_NAME":"COSMOS 2251 DEB","OBJECT_ID":"1993-036AZG","EPOCH":"2026-03-14T11:21:15.493536","MEAN_MOTION":14.36255146,"ECCENTRICITY":0.00475652,"INCLINATION":74.0119,"RA_OF_ASC_NODE":138.1291,"ARG_OF_PERICENTER":246.6676,"MEAN_ANOMALY":128.7935,"EPHEMERIS_TYPE":0,"CLASSIFICATION_TYPE":"U","NORAD_CAT_ID":36379,"ELEMENT_SET_NO":999,"REV_AT_EPOCH":66145,"BSTAR":0.00024926876,"MEAN_MOTION_DOT":7.11e-6,"MEAN_MOTION_DDOT":0},{"OBJECT_NAME":"COSMOS 2251 DEB","OBJECT_ID":"1993-036AZN","EPOCH":"2026-03-14T23:42:40.235616","MEAN_MOTION":14.74983653,"ECCENTRICITY":0.01360994,"INCLINATION":73.9713,"RA_OF_ASC_NODE":333.7971,"ARG_OF_PERICENTER":127.1116,"MEAN_ANOMALY":234.2587,"EPHEMERIS_TYPE":0,"CLASSIFICATION_TYPE":"U","NORAD_CAT_ID":36385,"ELEMENT_SET_NO":999,"REV_AT_EPOCH":86461,"BSTAR":0.001699293,"MEAN_MOTION_DOT":0.00013273,"MEAN_MOTION_DDOT":0},{"OBJECT_NAME":"COSMOS 2251 DEB","OBJECT_ID":"1993-036AZT","EPOCH":"2026-03-13T20:26:37.170240","MEAN_MOTION":14.36996716,"ECCENTRICITY":0.00183348,"INCLINATION":74.0355,"RA_OF_ASC_NODE":107.9798,"ARG_OF_PERICENTER":182.3953,"MEAN_ANOMALY":356.717,"EPHEMERIS_TYPE":0,"CLASSIFICATION_TYPE":"U","NORAD_CAT_ID":36420,"ELEMENT_SET_NO":999,"REV_AT_EPOCH":86345,"BSTAR":0.00013236868,"MEAN_MOTION_DOT":3.67e-6,"MEAN_MOTION_DDOT":0},{"OBJECT_NAME":"COSMOS 2251 DEB","OBJECT_ID":"1993-036BAD","EPOCH":"2026-03-08T08:45:29.674656","MEAN_MOTION":14.27995713,"ECCENTRICITY":0.0095184,"INCLINATION":74.0058,"RA_OF_ASC_NODE":313.0782,"ARG_OF_PERICENTER":83.2405,"MEAN_ANOMALY":277.9563,"EPHEMERIS_TYPE":0,"CLASSIFICATION_TYPE":"U","NORAD_CAT_ID":36430,"ELEMENT_SET_NO":999,"REV_AT_EPOCH":65779,"BSTAR":0.00044251,"MEAN_MOTION_DOT":1.127e-5,"MEAN_MOTION_DDOT":0}]
